          "perihelion_distance": ".9117805850059481",
          "perihelion_argument": "232.1850896599231",
          "aphelion_distance": "3.956871987428373",
          "perihelion_time": "2459293.350605125452",
          "mean_anomaly": "351.21579772942",
          "mean_motion": ".2594991208584115",
          "equinox": "J2000",
          "orbit_class": {
            "orbit_class_type": "APO",
            "orbit_class_description": "Near-Earth asteroid orbits which cross the Earth’s orbit similar to that of 1862 Apollo",
            "orbit_class_range": "a (semi-major axis) > 1.0 AU; q (perihelion) < 1.017 AU"
          }
        },
        "is_sentry_object": false
      },
      {
        "links": {
          "self": "http://www.neowsapp.com/rest/v1/neo/54122196?api_key=DEMO_KEY"
        },
        "id": "54122196",
        "neo_reference_id": "54122196",
        "name": "(2021 CP9)",
        "nasa_jpl_url": "http://ssd.jpl.nasa.gov/sbdb.cgi?sstr=54122196",
        "absolute_magnitude_h": 26.926,
        "estimated_diameter": {
          "kilometers": {
            "estimated_diameter_min": 0.0109485089,
            "estimated_diameter_max": 0.0244816102
          },
          "meters": {
            "estimated_diameter_min": 10.9485089218,
            "estimated_diameter_max": 24.4816102014
          },
          "miles": {
            "estimated_diameter_min": 0.0068030859,
            "estimated_diameter_max": 0.0152121626
          },
          "feet": {
            "estimated_diameter_min": 35.9203060109,
            "estimated_diameter_max": 80.3202460131
          }
        },
        "is_potentially_hazardous_asteroid": false,
        "close_approach_data": [
          {
            "close_approach_date": "2021-02-19",
            "close_approach_date_full": "2021-Feb-19 13:51",
            "epoch_date_close_approach": 1613742660000,
            "relative_velocity": {
              "kilometers_per_second": "8.9626641065",
              "kilometers_per_hour": "32265.590783338",
              "miles_per_hour": "20048.5833397913"
            },
            "miss_distance": {
              "astronomical": "0.0248964438",
              "lunar": "9.6847166382",
              "kilometers": "3724454.963054706",
              "miles": "2314268.9999627028"
            },
            "orbiting_body": "Earth"
          }
        ],
        "orbital_data": {
          "orbit_id": "1",
          "orbit_determination_date": "2021-02-16 03:12:04",
          "first_observation_date": "2021-02-15",
          "last_observation_date": "2021-02-16",
          "data_arc_in_days": 1,
          "observations_used": 15,
          "orbit_uncertainty": "9",
          "minimum_orbit_intersection": ".0247373",
          "jupiter_tisserand_invariant": "7.412",
          "epoch_osculation": "2459261.5",
          "eccentricity": ".3085889058925763",
          "semi_major_axis": ".7764168603161069",
          "inclination": "14.806045628",
          "ascending_node_longitude": "332.0431648464699",
          "orbital_period": "249.8853891094084",
          "perihelion_distance": ".5368232308746101",
          "perihelion_argument": "5.594198401820077",
          "aphelion_distance": "1.016010489757604",
          "perihelion_time": "2459148.798901608148",
          "mean_anomaly": "162.3640164223557",
          "mean_motion": "1.440660461514137",
          "equinox": "J2000",
          "orbit_class": {
            "orbit_class_type": "ATE",
            "orbit_class_description": "Near-Earth asteroid orbits similar to that of 2062 Aten",
            "orbit_class_range": "a (semi-major axis) < 1.0 AU; q (perihelion) > 0.983 AU"
          }
        },
        "is_sentry_object": false
      }
    ]
  }
}